{"type": "FeatureCollection", "features": [ {"type": "Feature", "properties": {"norad_id": 66446, "name": "STARLINK-34986", "group": "last-30-days", "lat": 22.665793851329845, "lon": -114.01683613730717, "alt_km": 412.2429529776773, "timestamp": "2025-12-04T23:34:04.490207+00:00", "meta": {"OBJECT_NAME": "STARLINK-34986", "OBJECT_ID": "2025-259AA", "EPOCH": "2025-12-04T18:00:02.000160", "MEAN_MOTION": 15.50531021, "ECCENTRICITY": 0.000153, "INCLINATION": 43.0006, "RA_OF_ASC_NODE": 93.9647, "ARG_OF_PERICENTER": 274.8221, "MEAN_ANOMALY": 14.2945, "EPHEMERIS_TYPE": 0, "CLASSIFICATION_TYPE": "U", "NORAD_CAT_ID": 66446, "ELEMENT_SET_NO": 999, "REV_AT_EPOCH": 499, "BSTAR": 0.00027298, "MEAN_MOTION_DOT": 0.00015678, "MEAN_MOTION_DDOT": 0}, "tle": {"line1": "1 66446U 25259AA  25338.75002315  .00015678  00000+0  27298-3 0  9990", "line2": "2 66446  43.0006  93.9647 0001530 274.8221  14.2945 15.50531021  4994"}}, "geometry": {"type": "Point", "coordinates": [-114.01683613730717, 22.665793851329845]}}, {"type": "Feature", "properties": {"norad_id": 66447, "name": "STARLINK-34851", "group": "last-30-days", "lat": 20.296687585690027, "lon": -110.78529810913041, "alt_km": 412.4261919878072, "timestamp": "2025-12-04T23:34:04.490219+00:00", "meta": {"OBJECT_NAME": "STARLINK-34851", "OBJECT_ID": "2025-259AB", "EPOCH": "2025-12-04T18:00:02.000160", "MEAN_MOTION": 15.50550989, "ECCENTRICITY": 0.0001214, "INCLINATION": 43.0007, "RA_OF_ASC_NODE": 93.9554, "ARG_OF_PERICENTER": 276.2533, "MEAN_ANOMALY": 16.6797, "EPHEMERIS_TYPE": 0, "CLASSIFICATION_TYPE": "U", "NORAD_CAT_ID": 66447, "ELEMENT_SET_NO": 999, "REV_AT_EPOCH": 488, "BSTAR": -8.2709e-05, "MEAN_MOTION_DOT": -5.185e-05, "MEAN_MOTION_DDOT": 0}, "tle": {"line1": "1 66447U 25259AB  25338.75002315 -.00005185  00000+0 -82709-4 0  9994", "line2": "2 66447  43.0007  93.9554 0001214 276.2533  16.6797 15.50550989  4887"}}, "geometry": {"type": "Point", "coordinates": [-110.78529810913041, 20.296687585690027]}}, {"type": "Feature", "properties": {"norad_id": 66448, "name": "STARLINK-35355", "group": "last-30-days", "lat": 19.09197035724475, "lon": -109.21045892338857, "alt_km": 412.5919797414517, "timestamp": "2025-12-04T23:34:04.490229+00:00", "meta": {"OBJECT_NAME": "STARLINK-35355", "OBJECT_ID": "2025-259AC", "EPOCH": "2025-12-04T18:00:02.000160", "MEAN_MOTION": 15.50540319, "ECCENTRICITY": 0.000144, "INCLINATION": 43.0005, "RA_OF_ASC_NODE": 93.9506, "ARG_OF_PERICENTER": 269.8197, "MEAN_ANOMALY": 25.0333, "EPHEMERIS_TYPE": 0, "CLASSIFICATION_TYPE": "U", "NORAD_CAT_ID": 66448, "ELEMENT_SET_NO": 999, "REV_AT_EPOCH": 499, "BSTAR": 0.00033119, "MEAN_MOTION_DOT": 0.00019108, "MEAN_MOTION_DDOT": 0}, "tle": {"line1": "1 66448U 25259AC  25338.75002315  .00019108  00000+0  33119-3 0  9993", "line2": "2 66448  43.0005  93.9506 0001440 269.8197  25.0333 15.50540319  4996"}}, "geometry": {"type": "Point", "coordinates": [-109.21045892338857, 19.09197035724475]}}, {"type": "Feature", "properties": {"norad_id": 66449, "name": "STARLINK-34720", "group": "last-30-days", "lat": 17.875121300631985, "lon": -107.65995992265067, "alt_km": 412.6422586009612, "timestamp": "2025-12-04T23:34:04.490239+00:00", "meta": {"OBJECT_NAME": "STARLINK-34720", "OBJECT_ID": "2025-259AD", "EPOCH": "2025-12-04T18:00:02.000160", "MEAN_MOTION": 15.50535042, "ECCENTRICITY": 0.0001456, "INCLINATION": 43.0006, "RA_OF_ASC_NODE": 93.9456, "ARG_OF_PERICENTER": 262.4028, "MEAN_ANOMALY": 34.3644, "EPHEMERIS_TYPE": 0, "CLASSIFICATION_TYPE": "U", "NORAD_CAT_ID": 66449, "ELEMENT_SET_NO": 999, "REV_AT_EPOCH": 488, "BSTAR": 0.00054425, "MEAN_MOTION_DOT": 0.00031666, "MEAN_MOTION_DDOT": 0}, "tle": {"line1": "1 66449U 25259AD  25338.75002315  .00031666  00000+0  54425-3 0  9990", "line2": "2 66449  43.0006  93.9456 0001456 262.4028  34.3644 15.50535042  4884"}}, "geometry": {"type": "Point", "coordinates": [-107.65995992265067, 17.875121300631985]}}, {"type": "Feature", "properties": {"norad_id": 66450, "name": "STARLINK-35334", "group": "last-30-days", "lat": 16.63498301518661, "lon": -106.11774507012377, "alt_km": 413.12006165720504, "timestamp": "2025-12-04T23:34:04.490250+00:00", "meta": {"OBJECT_NAME": "STARLINK-35334", "OBJECT_ID": "2025-259AE", "EPOCH": "2025-12-04T18:00:02.000160", "MEAN_MOTION": 15.50578612, "ECCENTRICITY": 0.0001705, "INCLINATION": 43.0006, "RA_OF_ASC_NODE": 93.94, "ARG_OF_PERICENTER": 278.5593, "MEAN_ANOMALY": 20.1132, "EPHEMERIS_TYPE": 0, "CLASSIFICATION_TYPE": "U", "NORAD_CAT_ID": 66450, "ELEMENT_SET_NO": 999, "REV_AT_EPOCH": 499, "BSTAR": -0.00062922, "MEAN_MOTION_DOT": -0.00037081, "MEAN_MOTION_DDOT": 0}, "tle": {"line1": "1 66450U 25259AE  25338.75002315 -.00037081  00000+0 -62922-3 0  9992", "line2": "2 66450  43.0006  93.9400 0001705 278.5593  20.1132 15.50578612  4994"}}, "geometry": {"type": "Point", "coordinates": [-106.11774507012377, 16.63498301518661]}}, {"type": "Feature", "properties": {"norad_id": 66454, "name": "VIASAT-3 F2", "group": "last-30-days", "lat": 4.732947219449231, "lon": -9.051021742730486, "alt_km": 20363.50188261038, "timestamp": "2025-12-04T23:34:04.490265+00:00", "meta": {"OBJECT_NAME": "VIASAT-3 F2", "OBJECT_ID": "2025-261A", "EPOCH": "2025-12-04T01:07:27.782112", "MEAN_MOTION": 2.28102609, "ECCENTRICITY": 0.23421394, "INCLINATION": 5.5724, "RA_OF_ASC_NODE": 293.1352, "ARG_OF_PERICENTER": 184.2254, "MEAN_ANOMALY": 209.6829, "EPHEMERIS_TYPE": 0, "CLASSIFICATION_TYPE": "U", "NORAD_CAT_ID": 66454, "ELEMENT_SET_NO": 999, "REV_AT_EPOCH": 45, "BSTAR": 0, "MEAN_MOTION_DOT": -5.6e-07, "MEAN_MOTION_DDOT": 0}, "tle": {"line1": "1 66454U 25261A   25338.04684933 -.00000056  00000+0  00000+0 0  9999", "line2": "2 66454   5.5724 293.1352 2342139 184.2254 209.6829  2.28102609   450"}}, "geometry": {"type": "Point", "coordinates": [-9.051021742730486, 4.732947219449231]}}, {"type": "Feature", "properties": {"norad_id": 66455, "name": "ATLAS 5 CENTAUR R/B", "group": "last-30-days", "lat": 4.895182004573642, "lon": -15.16415321315245, "alt_km": 20936.702553325045, "timestamp": "2025-12-04T23:34:04.490277+00:00", "meta": {"OBJECT_NAME": "ATLAS 5 CENTAUR R/B", "OBJECT_ID": "2025-261B", "EPOCH": "2025-12-04T12:52:51.619584", "MEAN_MOTION": 2.28259385, "ECCENTRICITY": 0.23296099, "INCLINATION": 6.1565, "RA_OF_ASC_NODE": 292.4364, "ARG_OF_PERICENTER": 184.835, "MEAN_ANOMALY": 244.04, "EPHEMERIS_TYPE": 0, "CLASSIFICATION_TYPE": "U", "NORAD_CAT_ID": 66455, "ELEMENT_SET_NO": 999, "REV_AT_EPOCH": 46, "BSTAR": 0, "MEAN_MOTION_DOT": -5.9e-07, "MEAN_MOTION_DDOT": 0}, "tle": {"line1": "1 66455U 25261B   25338.53670856 -.00000059  00000+0  00000+0 0  9996", "line2": "2 66455   6.1565 292.4364 2329609 184.8350 244.0400  2.28259385   469"}}, "geometry": {"type": "Point", "coordinates": [-15.16415321315245, 4.895182004573642]}}, {"type": "Feature", "properties": {"norad_id": 66456, "name": "STARLINK-35643", "group": "last-30-days", "lat": -7.335883853430648, "lon": -55.55494074416348, "alt_km": 409.21466413987855, "timestamp": "2025-12-04T23:34:04.490288+00:00", "meta": {"OBJECT_NAME": "STARLINK-35643", "OBJECT_ID": "2025-262A", "EPOCH": "2025-12-04T18:00:02.000160", "MEAN_MOTION": 15.53907459, "ECCENTRICITY": 0.0001647, "INCLINATION": 42.9996, "RA_OF_ASC_NODE": 117.8667, "ARG_OF_PERICENTER": 276.5037, "MEAN_ANOMALY": 55.4482, "EPHEMERIS_TYPE": 0, "CLASSIFICATION_TYPE": "U", "NORAD_CAT_ID": 66456, "ELEMENT_SET_NO": 999, "REV_AT_EPOCH": 435, "BSTAR": -0.036249, "MEAN_MOTION_DOT": -0.02128277, "MEAN_MOTION_DDOT": 0}, "tle": {"line1": "1 66456U 25262A   25338.75002315 -.02128277  00000+0 -36249-1 0  9993", "line2": "2 66456  42.9996 117.8667 0001647 276.5037  55.4482 15.53907459  4350"}}, "geometry": {"type": "Point", "coordinates": [-55.55494074416348, -7.335883853430648]}}, {"type": "Feature", "properties": {"norad_id": 66457, "name": "STARLINK-35466", "group": "last-30-days", "lat": -9.915649918496861, "lon": -52.69313926394389, "alt_km": 409.4292923711846, "timestamp": "2025-12-04T23:34:04.490299+00:00", "meta": {"OBJECT_NAME": "STARLINK-35466", "OBJECT_ID": "2025-262B", "EPOCH": "2025-12-04T18:00:02.000160", "MEAN_MOTION": 15.53909178, "ECCENTRICITY": 0.0001541, "INCLINATION": 42.9995, "RA_OF_ASC_NODE": 117.8571, "ARG_OF_PERICENTER": 276.3079, "MEAN_ANOMALY": 59.4789, "EPHEMERIS_TYPE": 0, "CLASSIFICATION_TYPE": "U", "NORAD_CAT_ID": 66457, "ELEMENT_SET_NO": 999, "REV_AT_EPOCH": 435, "BSTAR": -0.03633, "MEAN_MOTION_DOT": -0.02132536, "MEAN_MOTION_DDOT": 0}, "tle": {"line1": "1 66457U 25262B   25338.75002315 -.02132536  00000+0 -36330-1 0  9998", "line2": "2 66457  42.9995 117.8571 0001541 276.3079  59.4789 15.53909178  4355"}}, "geometry": {"type": "Point", "coordinates": [-52.69313926394389, -9.915649918496861]}}, {"type": "Feature", "properties": {"norad_id": 66458, "name": "STARLINK-35684", "group": "last-30-days", "lat": -8.62934973670682, "lon": -54.12847761416464, "alt_km": 409.30980015253135, "timestamp": "2025-12-04T23:34:04.490311+00:00", "meta": {"OBJECT_NAME": "STARLINK-35684", "OBJECT_ID": "2025-262C", "EPOCH": "2025-12-04T18:00:02.000160", "MEAN_MOTION": 15.53910345, "ECCENTRICITY": 0.0001546, "INCLINATION": 42.9997, "RA_OF_ASC_NODE": 117.8614, "ARG_OF_PERICENTER": 275.678, "MEAN_ANOMALY": 58.1912, "EPHEMERIS_TYPE": 0, "CLASSIFICATION_TYPE": "U", "NORAD_CAT_ID": 66458, "ELEMENT_SET_NO": 999, "REV_AT_EPOCH": 435, "BSTAR": -0.036354, "MEAN_MOTION_DOT": -0.02133882, "MEAN_MOTION_DDOT": 0}, "tle": {"line1": "1 66458U 25262C   25338.75002315 -.02133882  00000+0 -36354-1 0  9990", "line2": "2 66458  42.9997 117.8614 0001546 275.6780  58.1912 15.53910345  4354"}}, "geometry": {"type": "Point", "coordinates": [-54.12847761416464, -8.62934973670682]}}]}